{
  "norad_id": 66456,
  "name": "STARLINK-35643",
  "history": [
    {
      "epoch": "2026-03-28T17:21:29.328768Z",
      "apogee_km": 483.6383554463282,
      "perigee_km": 482.2933048475061,
      "latitude_deg": -2.2409443358650237e-05,
      "longitude_deg": 102.49166328485249,
      "height_km": 482.747358646295,
      "semi_major_axis_km": 6861.102830146917,
      "eccentricity": 9.802e-05,
      "inclination_deg": 43.0025,
      "raan_deg": 189.0035,
      "arg_perigee_deg": 269.5818,
      "mean_anomaly_deg": 90.4921,
      "mean_motion_rev_day": 15.27607808
    },
    {
      "epoch": "2026-03-29T23:10:28.182144Z",
      "apogee_km": 484.4033744428789,
      "perigee_km": 481.6643950256939,
      "latitude_deg": 9.322960505583664e-06,
      "longitude_deg": 7.006361197766696,
      "height_km": 482.68499863176186,
      "semi_major_axis_km": 6861.170884734286,
      "eccentricity": 0.0001996,
      "inclination_deg": 43.0025,
      "raan_deg": 181.9879,
      "arg_perigee_deg": 275.2935,
      "mean_anomaly_deg": 84.7689,
      "mean_motion_rev_day": 15.2758508
    },
    {
      "epoch": "2026-03-29T23:10:28.183008Z",
      "apogee_km": 484.40351166629716,
      "perigee_km": 481.66425780227564,
      "latitude_deg": 1.0888920744197453e-05,
      "longitude_deg": 7.0063592577734,
      "height_km": 482.6849859737621,
      "semi_major_axis_km": 6861.170884734286,
      "eccentricity": 0.00019962,
      "inclination_deg": 43.0025,
      "raan_deg": 181.9879,
      "arg_perigee_deg": 275.2935,
      "mean_anomaly_deg": 84.7689,
      "mean_motion_rev_day": 15.2758508
    },
    {
      "epoch": "2026-03-30T14:52:02.386848Z",
      "apogee_km": 483.89538362907297,
      "perigee_km": 482.07293262705207,
      "latitude_deg": -3.198582002724874e-05,
      "longitude_deg": 127.27621646429175,
      "height_km": 482.6127639335469,
      "semi_major_axis_km": 6861.121158128062,
      "eccentricity": 0.00013281,
      "inclination_deg": 43.0031,
      "raan_deg": 178.2948,
      "arg_perigee_deg": 279.3721,
      "mean_anomaly_deg": 80.698,
      "mean_motion_rev_day": 15.27601687
    },
    {
      "epoch": "2026-03-30T22:42:49.242528Z",
      "apogee_km": 483.7924425496967,
      "perigee_km": 482.23290322904813,
      "latitude_deg": 3.644013931795106e-05,
      "longitude_deg": 7.410119715693081,
      "height_km": 482.75754964595467,
      "semi_major_axis_km": 6861.149672889372,
      "eccentricity": 0.00011365,
      "inclination_deg": 43.0001,
      "raan_deg": 176.4461,
      "arg_perigee_deg": 272.3234,
      "mean_anomaly_deg": 87.7488,
      "mean_motion_rev_day": 15.27592164
    },
    {
      "epoch": "2026-03-31T14:24:22.673952Z",
      "apogee_km": 483.5923433366297,
      "perigee_km": 482.3559711060989,
      "latitude_deg": -4.206207243203413e-05,
      "longitude_deg": 127.68716631229901,
      "height_km": 482.712652816079,
      "semi_major_axis_km": 6861.111157221364,
      "eccentricity": 9.01e-05,
      "inclination_deg": 43.0041,
      "raan_deg": 172.757,
      "arg_perigee_deg": 273.5464,
      "mean_anomaly_deg": 86.5284,
      "mean_motion_rev_day": 15.27605027
    },
    {
      "epoch": "2026-04-01T06:05:57.079968Z",
      "apogee_km": 484.1773382486781,
      "perigee_km": 481.78555235864496,
      "latitude_deg": -4.391436614627911e-05,
      "longitude_deg": -112.04487730686931,
      "height_km": 482.0830663105916,
      "semi_major_axis_km": 6861.118445303661,
      "eccentricity": 0.0001743,
      "inclination_deg": 43.0016,
      "raan_deg": 169.0628,
      "arg_perigee_deg": 55.7849,
      "mean_anomaly_deg": 304.3167,
      "mean_motion_rev_day": 15.27602593
    },
    {
      "epoch": "2026-04-02T11:54:55.176480Z",
      "apogee_km": 483.7192979395586,
      "perigee_km": 482.1778864504149,
      "latitude_deg": -2.3006724371592964e-05,
      "longitude_deg": 152.47377218175575,
      "height_km": 482.5241929677365,
      "semi_major_axis_km": 6861.085592194986,
      "eccentricity": 0.00011233,
      "inclination_deg": 43.0019,
      "raan_deg": 162.048,
      "arg_perigee_deg": 285.1231,
      "mean_anomaly_deg": 74.9496,
      "mean_motion_rev_day": 15.27613565
    },
    {
      "epoch": "2026-04-02T21:19:51.347136Z",
      "apogee_km": 483.28516061559367,
      "perigee_km": 482.59589676706037,
      "latitude_deg": -1.830890543904553e-05,
      "longitude_deg": 8.635347995267818,
      "height_km": 482.50596717638456,
      "semi_major_axis_km": 6861.077528691327,
      "eccentricity": 5.023e-05,
      "inclination_deg": 43.0067,
      "raan_deg": 159.8303,
      "arg_perigee_deg": 52.389,
      "mean_anomaly_deg": 307.7007,
      "mean_motion_rev_day": 15.27616258
    },
    {
      "epoch": "2026-04-03T05:10:37.680096Z",
      "apogee_km": 484.10393659431884,
      "perigee_km": 481.9203072747732,
      "latitude_deg": 5.32620540575521e-06,
      "longitude_deg": -111.22451287464597,
      "height_km": 482.9339138622911,
      "semi_major_axis_km": 6861.149121934546,
      "eccentricity": 0.00015913,
      "inclination_deg": 43.0022,
      "raan_deg": 157.9857,
      "arg_perigee_deg": 262.3829,
      "mean_anomaly_deg": 97.6842,
      "mean_motion_rev_day": 15.27592348
    },
    {
      "epoch": "2026-04-04T12:33:45.170208Z",
      "apogee_km": 484.46568870604824,
      "perigee_km": 481.3227875164939,
      "latitude_deg": 9.826222057034233e-06,
      "longitude_deg": 129.318829417784,
      "height_km": 482.3469430315853,
      "semi_major_axis_km": 6861.031238111271,
      "eccentricity": 0.00022904,
      "inclination_deg": 43.005,
      "raan_deg": 150.5992,
      "arg_perigee_deg": 281.9448,
      "mean_anomaly_deg": 78.1147,
      "mean_motion_rev_day": 15.27631718
    },
    {
      "epoch": "2026-04-05T10:31:58.767168Z",
      "apogee_km": 483.9802874784682,
      "perigee_km": 482.2039152641237,
      "latitude_deg": -2.250872892867938e-05,
      "longitude_deg": 153.69034564129058,
      "height_km": 482.7204665302479,
      "semi_major_axis_km": 6861.229101371296,
      "eccentricity": 0.00012945,
      "inclination_deg": 43.0013,
      "raan_deg": 145.4297,
      "arg_perigee_deg": 279.6184,
      "mean_anomaly_deg": 80.4521,
      "mean_motion_rev_day": 15.27565638
    },
    {
      "epoch": "2026-04-05T19:56:54.320928Z",
      "apogee_km": 483.18447292334713,
      "perigee_km": 482.59991323609756,
      "latitude_deg": 2.5888699141872864e-05,
      "longitude_deg": 9.854644514250163,
      "height_km": 482.5544664485511,
      "semi_major_axis_km": 6861.029193079722,
      "eccentricity": 4.26e-05,
      "inclination_deg": 43.0006,
      "raan_deg": 143.2121,
      "arg_perigee_deg": 292.8715,
      "mean_anomaly_deg": 67.2092,
      "mean_motion_rev_day": 15.27632401
    },
    {
      "epoch": "2026-04-05T19:56:54.321792Z",
      "apogee_km": 483.18433570276284,
      "perigee_km": 482.60005045668095,
      "latitude_deg": 2.442751739250475e-05,
      "longitude_deg": 9.854639346175079,
      "height_km": 482.55451977527946,
      "semi_major_axis_km": 6861.029193079722,
      "eccentricity": 4.258e-05,
      "inclination_deg": 43.0006,
      "raan_deg": 143.2121,
      "arg_perigee_deg": 292.8715,
      "mean_anomaly_deg": 67.2092,
      "mean_motion_rev_day": 15.27632401
    },
    {
      "epoch": "2026-04-07T19:01:36.210144Z",
      "apogee_km": 483.791277181841,
      "perigee_km": 482.2639819353017,
      "latitude_deg": -3.427944205089467e-05,
      "longitude_deg": 10.669299658101496,
      "height_km": 482.7414375861979,
      "semi_major_axis_km": 6861.1646295585715,
      "eccentricity": 0.0001113,
      "inclination_deg": 43.0014,
      "raan_deg": 132.1348,
      "arg_perigee_deg": 274.7183,
      "mean_anomaly_deg": 85.3541,
      "mean_motion_rev_day": 15.27587169
    },
    {
      "epoch": "2026-04-08T09:09:00.589248Z",
      "apogee_km": 483.98518371763294,
      "perigee_km": 482.0798369446147,
      "latitude_deg": 1.5354479553832953e-05,
      "longitude_deg": 154.91484218824604,
      "height_km": 482.75186377037727,
      "semi_major_axis_km": 6861.169510331124,
      "eccentricity": 0.00013885,
      "inclination_deg": 43.0007,
      "raan_deg": 128.8119,
      "arg_perigee_deg": 273.4555,
      "mean_anomaly_deg": 86.6138,
      "mean_motion_rev_day": 15.27585539
    },
    {
      "epoch": "2026-04-09T08:41:21.134688Z",
      "apogee_km": 483.9796952935603,
      "perigee_km": 482.0379910199472,
      "latitude_deg": -4.405799802562439e-05,
      "longitude_deg": 155.3229558274838,
      "height_km": 482.73905246903496,
      "semi_major_axis_km": 6861.1458431567535,
      "eccentricity": 0.0001415,
      "inclination_deg": 43.0007,
      "raan_deg": 123.2724,
      "arg_perigee_deg": 272.7507,
      "mean_anomaly_deg": 87.3182,
      "mean_motion_rev_day": 15.27593443
    },
    {
      "epoch": "2026-04-10T01:57:04.447008Z",
      "apogee_km": 484.27187650801443,
      "perigee_km": 481.7781185683898,
      "latitude_deg": -3.09103464404102e-05,
      "longitude_deg": -108.37912663279805,
      "height_km": 482.58631932033813,
      "semi_major_axis_km": 6861.161997538202,
      "eccentricity": 0.00018173,
      "inclination_deg": 43.0,
      "raan_deg": 119.2097,
      "arg_perigee_deg": 279.963,
      "mean_anomaly_deg": 80.1016,
      "mean_motion_rev_day": 15.27588048
    },
    {
      "epoch": "2026-04-11T17:10:59.045088Z",
      "apogee_km": 484.12630601045566,
      "perigee_km": 481.91426890098046,
      "latitude_deg": -6.429149948207935e-05,
      "longitude_deg": 12.301448340862436,
      "height_km": 482.5955647590529,
      "semi_major_axis_km": 6861.157287455718,
      "eccentricity": 0.0001612,
      "inclination_deg": 43.0002,
      "raan_deg": 109.979,
      "arg_perigee_deg": 280.504,
      "mean_anomaly_deg": 79.5629,
      "mean_motion_rev_day": 15.27589621
    }
  ]
}